STARLINK-2119
1 27397C 21005BA  21325.16631880  .00007855  00000-0  52644-3 0  3256
2 27397  53.0528 267.4928 0001834  58.9512 252.3150 15.06378785    18
